{"type": "FeatureCollection", "features": [ {"type": "Feature", "properties": {"norad_id": 66875, "name": "STARLINK-36053", "group": "last-30-days", "lat": 27.296461648552626, "lon": 150.1807956829168, "alt_km": 300.34806959660364, "timestamp": "2025-12-13T15:35:10.878370+00:00", "meta": {"OBJECT_NAME": "STARLINK-36053", "OBJECT_ID": "2025-281AD", "EPOCH": "2025-12-12T20:00:01.999872", "MEAN_MOTION": 15.91608431, "ECCENTRICITY": 0.00016622, "INCLINATION": 43.0009, "RA_OF_ASC_NODE": 121.6185, "ARG_OF_PERICENTER": 282.6232, "MEAN_ANOMALY": 121.3514, "EPHEMERIS_TYPE": 0, "CLASSIFICATION_TYPE": "U", "NORAD_CAT_ID": 66875, "ELEMENT_SET_NO": 999, "REV_AT_EPOCH": 145, "BSTAR": -0.0043620989, "MEAN_MOTION_DOT": -0.01466018, "MEAN_MOTION_DDOT": 0.00060613255}, "tle": {"line1": "1 66875U 25281AD  25346.83335648 -.01466018  60613-3 -43621-2 0  9995", "line2": "2 66875  43.0009 121.6185 0001662 282.6232 121.3514 15.91608431  1459"}}, "geometry": {"type": "Point", "coordinates": [150.1807956829168, 27.296461648552626]}}, {"type": "Feature", "properties": {"norad_id": 66876, "name": "STARLINK-35702", "group": "last-30-days", "lat": 24.32635262081384, "lon": 145.5872071406329, "alt_km": 300.85679543779224, "timestamp": "2025-12-13T15:35:10.878379+00:00", "meta": {"OBJECT_NAME": "STARLINK-35702", "OBJECT_ID": "2025-281AE", "EPOCH": "2025-12-12T20:00:01.999872", "MEAN_MOTION": 15.91534716, "ECCENTRICITY": 0.00017853, "INCLINATION": 43.0012, "RA_OF_ASC_NODE": 121.6318, "ARG_OF_PERICENTER": 282.72, "MEAN_ANOMALY": 116.332, "EPHEMERIS_TYPE": 0, "CLASSIFICATION_TYPE": "U", "NORAD_CAT_ID": 66876, "ELEMENT_SET_NO": 999, "REV_AT_EPOCH": 145, "BSTAR": -0.0043220668, "MEAN_MOTION_DOT": -0.01447278, "MEAN_MOTION_DDOT": 0.00059157727}, "tle": {"line1": "1 66876U 25281AE  25346.83335648 -.01447278  59158-3 -43221-2 0  9991", "line2": "2 66876  43.0012 121.6318 0001785 282.7200 116.3320 15.91534716  1457"}}, "geometry": {"type": "Point", "coordinates": [145.5872071406329, 24.32635262081384]}}, {"type": "Feature", "properties": {"norad_id": 66877, "name": "ZQ-3 R/B", "group": "last-30-days", "lat": 45.75358823035857, "lon": 96.13324629097052, "alt_km": 1198.7530234718233, "timestamp": "2025-12-13T15:35:10.878389+00:00", "meta": {"OBJECT_NAME": "ZQ-3 R/B", "OBJECT_ID": "2025-282A", "EPOCH": "2025-12-12T12:59:05.830944", "MEAN_MOTION": 14.58437511, "ECCENTRICITY": 0.07834735, "INCLINATION": 56.9522, "RA_OF_ASC_NODE": 58.4389, "ARG_OF_PERICENTER": 219.6051, "MEAN_ANOMALY": 134.5165, "EPHEMERIS_TYPE": 0, "CLASSIFICATION_TYPE": "U", "NORAD_CAT_ID": 66877, "ELEMENT_SET_NO": 999, "REV_AT_EPOCH": 136, "BSTAR": 0.00027505499, "MEAN_MOTION_DOT": 0.01370702, "MEAN_MOTION_DDOT": 7.4503e-06}, "tle": {"line1": "1 66877U 25282A   25346.54103971  .01370702  74503-5  27505-3 0  9999", "line2": "2 66877  56.9522  58.4389 0783473 219.6051 134.5165 14.58437511  1362"}}, "geometry": {"type": "Point", "coordinates": [96.13324629097052, 45.75358823035857]}}, {"type": "Feature", "properties": {"norad_id": 66878, "name": "STARLINK-35866", "group": "last-30-days", "lat": 9.690664057753047, "lon": 76.71743903732006, "alt_km": 295.5135637579906, "timestamp": "2025-12-13T15:35:10.878400+00:00", "meta": {"OBJECT_NAME": "STARLINK-35866", "OBJECT_ID": "2025-283A", "EPOCH": "2025-12-12T20:00:01.999872", "MEAN_MOTION": 15.94056149, "ECCENTRICITY": 8.902e-05, "INCLINATION": 53.1549, "RA_OF_ASC_NODE": 73.5258, "ARG_OF_PERICENTER": 57.5648, "MEAN_ANOMALY": 311.7036, "EPHEMERIS_TYPE": 0, "CLASSIFICATION_TYPE": "U", "NORAD_CAT_ID": 66878, "ELEMENT_SET_NO": 999, "REV_AT_EPOCH": 244, "BSTAR": -0.0033130057, "MEAN_MOTION_DOT": -0.01252273, "MEAN_MOTION_DDOT": 0.00046976189}, "tle": {"line1": "1 66878U 25283A   25346.83335648 -.01252273  46976-3 -33130-2 0  9996", "line2": "2 66878  53.1549  73.5258 0000890  57.5648 311.7036 15.94056149  2441"}}, "geometry": {"type": "Point", "coordinates": [76.71743903732006, 9.690664057753047]}}, {"type": "Feature", "properties": {"norad_id": 66879, "name": "STARLINK-35749", "group": "last-30-days", "lat": 13.347328612942267, "lon": 79.5991167214117, "alt_km": 294.6432785456609, "timestamp": "2025-12-13T15:35:10.878409+00:00", "meta": {"OBJECT_NAME": "STARLINK-35749", "OBJECT_ID": "2025-283B", "EPOCH": "2025-12-12T20:00:01.999872", "MEAN_MOTION": 15.94183877, "ECCENTRICITY": 9.7e-05, "INCLINATION": 53.1548, "RA_OF_ASC_NODE": 73.5167, "ARG_OF_PERICENTER": 58.7168, "MEAN_ANOMALY": 314.8573, "EPHEMERIS_TYPE": 0, "CLASSIFICATION_TYPE": "U", "NORAD_CAT_ID": 66879, "ELEMENT_SET_NO": 999, "REV_AT_EPOCH": 244, "BSTAR": -0.0033590592, "MEAN_MOTION_DOT": -0.01278043, "MEAN_MOTION_DDOT": 0.00048812673}, "tle": {"line1": "1 66879U 25283B   25346.83335648 -.01278043  48813-3 -33591-2 0  9993", "line2": "2 66879  53.1548  73.5167 0000970  58.7168 314.8573 15.94183877  2448"}}, "geometry": {"type": "Point", "coordinates": [79.5991167214117, 13.347328612942267]}}, {"type": "Feature", "properties": {"norad_id": 66880, "name": "STARLINK-35844", "group": "last-30-days", "lat": 11.425258585880272, "lon": 78.07242088834967, "alt_km": 295.08720205250756, "timestamp": "2025-12-13T15:35:10.878419+00:00", "meta": {"OBJECT_NAME": "STARLINK-35844", "OBJECT_ID": "2025-283C", "EPOCH": "2025-12-12T20:00:01.999872", "MEAN_MOTION": 15.94113288, "ECCENTRICITY": 9.618e-05, "INCLINATION": 53.155, "RA_OF_ASC_NODE": 73.5217, "ARG_OF_PERICENTER": 59.7367, "MEAN_ANOMALY": 311.5667, "EPHEMERIS_TYPE": 0, "CLASSIFICATION_TYPE": "U", "NORAD_CAT_ID": 66880, "ELEMENT_SET_NO": 999, "REV_AT_EPOCH": 244, "BSTAR": -0.0033193997, "MEAN_MOTION_DOT": -0.01258445, "MEAN_MOTION_DDOT": 0.00047425318}, "tle": {"line1": "1 66880U 25283C   25346.83335648 -.01258445  47425-3 -33194-2 0  9996", "line2": "2 66880  53.1550  73.5217 0000961  59.7367 311.5667 15.94113288  2448"}}, "geometry": {"type": "Point", "coordinates": [78.07242088834967, 11.425258585880272]}}, {"type": "Feature", "properties": {"norad_id": 66881, "name": "STARLINK-35860", "group": "last-30-days", "lat": 14.809032839276268, "lon": 80.78143475722798, "alt_km": 294.3006038494332, "timestamp": "2025-12-13T15:35:10.878429+00:00", "meta": {"OBJECT_NAME": "STARLINK-35860", "OBJECT_ID": "2025-283D", "EPOCH": "2025-12-12T20:00:01.999872", "MEAN_MOTION": 15.94233686, "ECCENTRICITY": 0.00010737, "INCLINATION": 53.1548, "RA_OF_ASC_NODE": 73.513, "ARG_OF_PERICENTER": 49.9904, "MEAN_ANOMALY": 325.3025, "EPHEMERIS_TYPE": 0, "CLASSIFICATION_TYPE": "U", "NORAD_CAT_ID": 66881, "ELEMENT_SET_NO": 999, "REV_AT_EPOCH": 244, "BSTAR": -0.0033557575, "MEAN_MOTION_DOT": -0.01280167, "MEAN_MOTION_DDOT": 0.00048985117}, "tle": {"line1": "1 66881U 25283D   25346.83335648 -.01280167  48985-3 -33558-2 0  9999", "line2": "2 66881  53.1548  73.5130 0001073  49.9904 325.3025 15.94233686  2449"}}, "geometry": {"type": "Point", "coordinates": [80.78143475722798, 14.809032839276268]}}, {"type": "Feature", "properties": {"norad_id": 66882, "name": "STARLINK-35912", "group": "last-30-days", "lat": 16.49646910533095, "lon": 82.17322222086278, "alt_km": 293.8621396584749, "timestamp": "2025-12-13T15:35:10.878441+00:00", "meta": {"OBJECT_NAME": "STARLINK-35912", "OBJECT_ID": "2025-283E", "EPOCH": "2025-12-12T20:00:01.999872", "MEAN_MOTION": 15.94286093, "ECCENTRICITY": 0.00010527, "INCLINATION": 53.1549, "RA_OF_ASC_NODE": 73.5091, "ARG_OF_PERICENTER": 49.4034, "MEAN_ANOMALY": 327.8815, "EPHEMERIS_TYPE": 0, "CLASSIFICATION_TYPE": "U", "NORAD_CAT_ID": 66882, "ELEMENT_SET_NO": 999, "REV_AT_EPOCH": 244, "BSTAR": -0.0033359017, "MEAN_MOTION_DOT": -0.01276195, "MEAN_MOTION_DDOT": 0.00048734213}, "tle": {"line1": "1 66882U 25283E   25346.83335648 -.01276195  48734-3 -33359-2 0  9997", "line2": "2 66882  53.1549  73.5091 0001052  49.4034 327.8815 15.94286093  2447"}}, "geometry": {"type": "Point", "coordinates": [82.17322222086278, 16.49646910533095]}}, {"type": "Feature", "properties": {"norad_id": 66883, "name": "STARLINK-35947", "group": "last-30-days", "lat": 18.301666778380763, "lon": 83.69824175695045, "alt_km": 293.42655174601896, "timestamp": "2025-12-13T15:35:10.878451+00:00", "meta": {"OBJECT_NAME": "STARLINK-35947", "OBJECT_ID": "2025-283F", "EPOCH": "2025-12-12T20:00:01.999872", "MEAN_MOTION": 15.94342766, "ECCENTRICITY": 8.446e-05, "INCLINATION": 53.1549, "RA_OF_ASC_NODE": 73.5048, "ARG_OF_PERICENTER": 58.598, "MEAN_ANOMALY": 320.8322, "EPHEMERIS_TYPE": 0, "CLASSIFICATION_TYPE": "U", "NORAD_CAT_ID": 66883, "ELEMENT_SET_NO": 999, "REV_AT_EPOCH": 249, "BSTAR": -0.0033206373, "MEAN_MOTION_DOT": -0.01274197, "MEAN_MOTION_DDOT": 0.00048622617}, "tle": {"line1": "1 66883U 25283F   25346.83335648 -.01274197  48623-3 -33206-2 0  9996", "line2": "2 66883  53.1549  73.5048 0000844  58.5980 320.8322 15.94342766  2490"}}, "geometry": {"type": "Point", "coordinates": [83.69824175695045, 18.301666778380763]}}, {"type": "Feature", "properties": {"norad_id": 66884, "name": "STARLINK-36057", "group": "last-30-days", "lat": 21.782094695781662, "lon": 86.76507573432013, "alt_km": 292.54633684853707, "timestamp": "2025-12-13T15:35:10.878461+00:00", "meta": {"OBJECT_NAME": "STARLINK-36057", "OBJECT_ID": "2025-283G", "EPOCH": "2025-12-12T20:00:01.999872", "MEAN_MOTION": 15.94466164, "ECCENTRICITY": 0.00010453, "INCLINATION": 53.1548, "RA_OF_ASC_NODE": 73.4957, "ARG_OF_PERICENTER": 52.5592, "MEAN_ANOMALY": 331.0711, "EPHEMERIS_TYPE": 0, "CLASSIFICATION_TYPE": "U", "NORAD_CAT_ID": 66884, "ELEMENT_SET_NO": 999, "REV_AT_EPOCH": 244, "BSTAR": -0.0033464343, "MEAN_MOTION_DOT": -0.01292391, "MEAN_MOTION_DDOT": 0.00049956062}, "tle": {"line1": "1 66884U 25283G   25346.83335648 -.01292391  49956-3 -33464-2 0  9999", "line2": "2 66884  53.1548  73.4957 0001045  52.5592 331.0711 15.94466164  2445"}}, "geometry": {"type": "Point", "coordinates": [86.76507573432013, 21.782094695781662]}}]}